NORAD_CAT_ID,OBJECT_NAME,OBJECT_TYPE,EPOCH,MEAN_MOTION,ECCENTRICITY,INCLINATION,RA_OF_ASC_NODE,ARG_OF_PERICENTER,MEAN_ANOMALY,BSTAR,MEAN_MOTION_DOT,MEAN_MOTION_DDOT,TLE_LINE0,TLE_LINE1,TLE_LINE2,SEMIMAJOR_AXIS,PERIOD,APOGEE,PERIGEE,DECAYED
55956.0,STARLINK-5883,PAYLOAD,2023-12-29 18:06:38,14.9833371,0.0002905,70.0003,123.7891,265.3663,94.7164,2.3369e-06,-6.5e-07,0.0,0 STARLINK-5883,1 55956U 23037AU  23363.75460883 -.00000065  00000-0  23369-5 0  9993,2 55956  70.0003 123.7891 0002905 265.3663  94.7164 14.98333710 44503,6950.181,96.107,574.065,570.027,0.0
55956.0,STARLINK-5883,PAYLOAD,2023-12-30 11:44:06,14.98339398,0.0003033,70.0001,121.9359,267.1326,92.9486,-0.00012085,-1.535e-05,0.0,0 STARLINK-5883,1 55956U 23037AU  23364.48896357 -.00001535  00000-0 -12085-3 0  9998,2 55956  70.0001 121.9359 0003033 267.1326  92.9486 14.98339398 44953,6950.164,96.106,574.137,569.921,0.0
55956.0,STARLINK-5883,PAYLOAD,2023-12-30 13:20:14,14.98338366,0.0003067,70.0,121.7675,269.5439,90.5369,-0.00012789,-1.619e-05,0.0,0 STARLINK-5883,1 55956U 23037AU  23364.55572412 -.00001619  00000-0 -12789-3 0  9993,2 55956  70.0000 121.7675 0003067 269.5439  90.5369 14.98338366 44621,6950.167,96.106,574.164,569.9,0.0
55956.0,STARLINK-5883,PAYLOAD,2023-12-30 18:08:38,14.98342095,0.0002906,70.0005,121.2627,266.211,93.8717,-0.0001406,-1.771e-05,0.0,0 STARLINK-5883,1 55956U 23037AU  23364.75600054 -.00001771  00000-0 -14060-3 0  9992,2 55956  70.0005 121.2627 0002906 266.2110  93.8717 14.98342095 44659,6950.155,96.106,574.04,570.001,0.0
55956.0,STARLINK-5883,PAYLOAD,2023-12-31 11:46:07,14.98367074,0.0002472,70.0006,119.4114,254.8542,105.2344,-0.00074091,-8.93e-05,0.0,0 STARLINK-5883,1 55956U 23037AU  23365.49036171 -.00008930  00000-0 -74091-3 0  9991,2 55956  70.0006 119.4114 0002472 254.8542 105.2344 14.98367074 45109,6950.078,96.105,573.661,570.225,0.0
55956.0,STARLINK-5883,PAYLOAD,2023-12-31 18:10:38,14.98371936,0.0002677,69.9998,118.7378,261.7923,98.2932,-0.00079551,-9.582e-05,0.0,0 STARLINK-5883,1 55956U 23037AU  23365.75739501 -.00009582  00000-0 -79551-3 0  9997,2 55956  69.9998 118.7378 0002677 261.7923  98.2932 14.98371936 44809,6950.063,96.104,573.789,570.068,0.0
55956.0,STARLINK-5883,PAYLOAD,2024-01-01 11:48:08,14.98330707,0.0003101,69.9997,116.8857,273.0364,87.044,1.9009e-05,1.34e-06,0.0,0 STARLINK-5883,1 55956U 23037AU  24001.49176185  .00000134  00000-0  19009-4 0  9994,2 55956  69.9997 116.8857 0003101 273.0364  87.0440 14.98330707 45258,6950.191,96.107,574.211,569.9,0.0
55956.0,STARLINK-5883,PAYLOAD,2024-01-01 13:24:16,14.98330503,0.0003288,69.9999,116.7178,278.1225,81.9561,1.3742e-05,7.1e-07,0.0,0 STARLINK-5883,1 55956U 23037AU  24001.55852241  .00000071  00000-0  13742-4 0  9993,2 55956  69.9999 116.7178 0003288 278.1225  81.9561 14.98330503 44927,6950.191,96.107,574.342,569.771,0.0
55956.0,STARLINK-5883,PAYLOAD,2024-01-01 16:36:31,14.98346767,0.0002871,69.9998,116.3814,268.617,91.466,-0.00013971,-1.76e-05,0.0,0 STARLINK-5883,1 55956U 23037AU  24001.69203468 -.00001760  00000-0 -13971-3 0  9990,2 55956  69.9998 116.3814 0002871 268.6170  91.4660 14.98346767 45284,6950.141,96.106,574.001,570.011,0.0
55956.0,STARLINK-5883,PAYLOAD,2024-01-02 11:50:09,14.98328556,0.0003001,69.9999,114.3617,266.7049,93.3766,4.5254e-05,4.47e-06,0.0,0 STARLINK-5883,1 55956U 23037AU  24002.49316023  .00000447  00000-0  45254-4 0  9990,2 55956  69.9999 114.3617 0003001 266.7049  93.3766 14.98328556 45402,6950.197,96.107,574.148,569.977,0.0
55956.0,STARLINK-5883,PAYLOAD,2024-01-02 13:26:17,14.98328498,0.0002995,70.0002,114.1939,266.9213,93.1604,6.6464e-05,7e-06,0.0,0 STARLINK-5883,1 55956U 23037AU  24002.55991969  .00000700  00000-0  66464-4 0  9993,2 55956  70.0002 114.1939 0002995 266.9213  93.1604 14.98328498 45078,6950.198,96.107,574.144,569.981,0.0
55956.0,STARLINK-5883,PAYLOAD,2024-01-02 16:38:33,14.98329658,0.0003167,70.0001,113.8572,269.4762,90.6034,7.205e-05,7.67e-06,0.0,0 STARLINK-5883,1 55956U 23037AU  24002.69343875  .00000767  00000-0  72050-4 0  9996,2 55956  70.0001 113.8572 0003167 269.4762  90.6034 14.98329658 45095,6950.194,96.107,574.26,569.858,0.0
55956.0,STARLINK-5883,PAYLOAD,2024-01-03 11:52:10,14.98327127,0.0002813,70.0004,111.838,263.6832,96.4006,-8.8204e-05,-1.145e-05,0.0,0 STARLINK-5883,1 55956U 23037AU  24003.49456476 -.00001145  00000-0 -88204-4 0  9998,2 55956  70.0004 111.8380 0002813 263.6832  96.4006 14.98327127 45557,6950.202,96.107,574.022,570.112,0.0
55956.0,STARLINK-5883,PAYLOAD,2024-01-03 13:28:18,14.98325141,0.0002857,70.0003,111.6692,263.7623,96.321,-0.00010318,-1.324e-05,0.0,0 STARLINK-5883,1 55956U 23037AU  24003.56132651 -.00001324  00000-0 -10318-3 0  9991,2 55956  70.0003 111.6692 0002857 263.7623  96.3210 14.98325141 45221,6950.208,96.107,574.059,570.087,0.0
55956.0,STARLINK-5883,PAYLOAD,2024-01-03 16:40:34,14.98326971,0.000277,70.0005,111.3331,259.9505,100.1341,-8.0277e-05,-1.051e-05,0.0,0 STARLINK-5883,1 55956U 23037AU  24003.69484500 -.00001051  00000-0 -80277-4 0  9997,2 55956  70.0005 111.3331 0002770 259.9505 100.1341 14.98326971 45243,6950.202,96.107,573.992,570.142,0.0
55956.0,STARLINK-5883,PAYLOAD,2024-01-04 11:54:10,14.98336112,0.0003184,69.9993,109.3103,271.5379,88.5415,6.1154e-05,6.37e-06,0.0,0 STARLINK-5883,1 55956U 23037AU  24004.49595330  .00000637  00000-0  61154-4 0  9990,2 55956  69.9993 109.3103 0003184 271.5379  88.5415 14.98336112 45709,6950.174,96.107,574.252,569.826,0.0
55956.0,STARLINK-5883,PAYLOAD,2024-01-04 13:30:18,14.98336375,0.0003111,69.9994,109.1421,270.073,90.0073,6.7925e-05,7.18e-06,0.0,0 STARLINK-5883,1 55956U 23037AU  24004.56271258  .00000718  00000-0  67925-4 0  9990,2 55956  69.9994 109.1421 0003111 270.0730  90.0073 14.98336375 45378,6950.173,96.107,574.2,569.876,0.0
55956.0,STARLINK-5883,PAYLOAD,2024-01-04 16:42:33,14.98341576,0.0003004,70.0001,108.8076,266.4519,93.6296,0.00012332,1.379e-05,0.0,0 STARLINK-5883,1 55956U 23037AU  24004.69622667  .00001379  00000-0  12332-3 0  9993,2 55956  70.0001 108.8076 0003004 266.4519  93.6296 14.98341576 45732,6950.157,96.106,574.11,569.934,0.0
55956.0,STARLINK-5883,PAYLOAD,2024-01-05 11:56:12,14.98319425,0.0002355,70.0021,106.7899,249.8446,110.246,-5.1576e-05,-7.08e-06,0.0,0 STARLINK-5883,1 55956U 23037AU  24005.49736597 -.00000708  00000-0 -51576-4 0  9991,2 55956  70.0021 106.7899 0002355 249.8446 110.2460 14.98319425 45856,6950.226,96.108,573.727,570.454,0.0
55956.0,STARLINK-5883,PAYLOAD,2024-01-05 13:32:20,14.98318939,0.0002857,70.002,106.6255,241.439,118.6482,-2.9735e-05,-4.48e-06,0.0,0 STARLINK-5883,1 55956U 23037AU  24005.56412602 -.00000448  00000-0 -29735-4 0  9990,2 55956  70.0020 106.6255 0002857 241.4390 118.6482 14.98318939 45522,6950.227,96.108,574.078,570.106,0.0
55956.0,STARLINK-5883,PAYLOAD,2024-01-05 16:44:36,14.98319554,0.0002923,69.9999,106.2822,265.1737,94.9089,-3.6461e-05,-5.28e-06,0.0,0 STARLINK-5883,1 55956U 23037AU  24005.69764697 -.00000528  00000-0 -36461-4 0  9991,2 55956  69.9999 106.2822 0002923 265.1737  94.9089 14.98319554 45547,6950.225,96.108,574.122,570.059,0.0
55956.0,STARLINK-5883,PAYLOAD,2024-01-06 11:58:12,14.98399207,0.0002876,69.9997,104.2617,262.2053,97.878,-0.0011953,-0.00014351,0.0,0 STARLINK-5883,1 55956U 23037AU  24006.49875042 -.00014351  00000-0 -11953-2 0  9993,2 55956  69.9997 104.2617 0002876 262.2053  97.8780 14.98399207 46006,6949.979,96.103,573.843,569.845,0.0
55956.0,STARLINK-5883,PAYLOAD,2024-01-06 16:46:36,14.98339423,0.0003021,69.9996,103.757,267.8759,92.2054,-1.4127e-05,-2.62e-06,0.0,0 STARLINK-5883,1 55956U 23037AU  24006.69903360 -.00000262  00000-0 -14127-4 0  9994,2 55956  69.9996 103.7570 0003021 267.8759  92.2054 14.98339423 46034,6950.164,96.106,574.128,569.929,0.0
55956.0,STARLINK-5883,PAYLOAD,2024-01-07 12:00:11,14.98342516,0.0002888,70.0002,101.7361,273.8328,86.2501,0.00027944,3.244e-05,0.0,0 STARLINK-5883,1 55956U 23037AU  24007.50013813  .00003244  00000-0  27944-3 0  9991,2 55956  70.0002 101.7361 0002888 273.8328  86.2501 14.98342516 46150,6950.154,96.106,574.026,570.012,0.0
55956.0,STARLINK-5883,PAYLOAD,2024-01-07 13:36:19,14.98348492,0.0003114,69.9996,101.5684,272.3152,87.765,0.00029313,3.408e-05,0.0,0 STARLINK-5883,1 55956U 23037AU  24007.56689282  .00003408  00000-0  29313-3 0  9990,2 55956  69.9996 101.5684 0003114 272.3152  87.7650 14.98348492 45820,6950.136,96.106,574.165,569.836,0.0
55956.0,STARLINK-5883,PAYLOAD,2024-01-07 15:12:27,14.98352105,0.000308,69.9997,101.4,272.7807,87.3,0.00032858,3.832e-05,0.0,0 STARLINK-5883,1 55956U 23037AU  24007.63364859  .00003832  00000-0  32858-3 0  9997,2 55956  69.9997 101.4000 0003080 272.7807  87.3000 14.98352105 46175,6950.125,96.106,574.13,569.849,0.0
55956.0,STARLINK-5883,PAYLOAD,2024-01-08 12:02:14,14.98320664,0.0003102,69.9997,99.2119,264.2132,95.8674,-0.00017353,-2.162e-05,0.0,0 STARLINK-5883,1 55956U 23037AU  24008.50155787 -.00002162  00000-0 -17353-3 0  9992,2 55956  69.9997  99.2119 0003102 264.2132  95.8674 14.98320664 46303,6950.222,96.108,574.243,569.931,0.0
55956.0,STARLINK-5883,PAYLOAD,2024-01-08 13:38:22,14.98326586,0.0003736,69.9982,99.0418,276.2133,83.8601,-0.00015374,-1.927e-05,0.0,0 STARLINK-5883,1 55956U 23037AU  24008.56831337 -.00001927  00000-0 -15374-3 0  9999,2 55956  69.9982  99.0418 0003736 276.2133  83.8601 14.98326586 45972,6950.203,96.107,574.665,569.472,0.0
55956.0,STARLINK-5883,PAYLOAD,2024-01-08 15:14:30,14.98322253,0.0002999,70.0,98.8756,262.2742,97.8077,-0.00015305,-1.918e-05,0.0,0 STARLINK-5883,1 55956U 23037AU  24008.63507671 -.00001918  00000-0 -15305-3 0  9992,2 55956  70.0000  98.8756 0002999 262.2742  97.8077 14.98322253 45989,6950.217,96.107,574.166,569.997,0.0
55956.0,STARLINK-5883,PAYLOAD,2024-01-09 12:04:15,14.98332438,0.0003142,69.9999,96.6881,263.899,96.1811,-0.00030731,-3.758e-05,0.0,0 STARLINK-5883,1 55956U 23037AU  24009.50295494 -.00003758  00000-0 -30731-3 0  9990,2 55956  69.9999  96.6881 0003142 263.8990  96.1811 14.98332438 46458,6950.185,96.107,574.234,569.867,0.0
